{"type": "FeatureCollection", "features": [ {"type": "Feature", "properties": {"norad_id": 40315, "name": "COSMOS 2501 (702K)", "group": "gnss", "lat": 43.962399278624254, "lon": -134.62761484574335, "alt_km": 19171.209713529122, "timestamp": "2025-12-14T11:29:50.302738+00:00", "meta": {"OBJECT_NAME": "COSMOS 2501 (702K)", "OBJECT_ID": "2014-075A", "EPOCH": "2025-12-12T01:35:26.425248", "MEAN_MOTION": 2.13101306, "ECCENTRICITY": 0.0020213, "INCLINATION": 63.6138, "RA_OF_ASC_NODE": 196.8484, "ARG_OF_PERICENTER": 204.6963, "MEAN_ANOMALY": 155.2753, "EPHEMERIS_TYPE": 0, "CLASSIFICATION_TYPE": "U", "NORAD_CAT_ID": 40315, "ELEMENT_SET_NO": 999, "REV_AT_EPOCH": 8586, "BSTAR": 0, "MEAN_MOTION_DOT": 6.5e-07, "MEAN_MOTION_DDOT": 0}, "tle": {"line1": "1 40315U 14075A   25346.06627807  .00000065  00000+0  00000+0 0  9995", "line2": "2 40315  63.6138 196.8484 0020213 204.6963 155.2753  2.13101306 85862"}}, "geometry": {"type": "Point", "coordinates": [-134.62761484574335, 43.962399278624254]}}, {"type": "Feature", "properties": {"norad_id": 40534, "name": "GPS BIIF-9  (PRN 26)", "group": "gnss", "lat": -50.9114058076306, "lon": 144.73543922568848, "alt_km": 20302.684880380693, "timestamp": "2025-12-14T11:29:50.302752+00:00", "meta": {"OBJECT_NAME": "GPS BIIF-9  (PRN 26)", "OBJECT_ID": "2015-013A", "EPOCH": "2025-12-13T14:04:23.865312", "MEAN_MOTION": 2.00562579, "ECCENTRICITY": 0.01070971, "INCLINATION": 53.1976, "RA_OF_ASC_NODE": 211.8551, "ARG_OF_PERICENTER": 38.5041, "MEAN_ANOMALY": 322.3346, "EPHEMERIS_TYPE": 0, "CLASSIFICATION_TYPE": "U", "NORAD_CAT_ID": 40534, "ELEMENT_SET_NO": 999, "REV_AT_EPOCH": 7810, "BSTAR": 0, "MEAN_MOTION_DOT": 4.8e-07, "MEAN_MOTION_DDOT": 0}, "tle": {"line1": "1 40534U 15013A   25347.58638733  .00000048  00000+0  00000+0 0  9990", "line2": "2 40534  53.1976 211.8551 0107097  38.5041 322.3346  2.00562579 78102"}}, "geometry": {"type": "Point", "coordinates": [144.73543922568848, -50.9114058076306]}}, {"type": "Feature", "properties": {"norad_id": 40544, "name": "GSAT0203 (GALILEO 7)", "group": "gnss", "lat": 20.503992305268827, "lon": 0.7821579603746164, "alt_km": 23226.84118746726, "timestamp": "2025-12-14T11:29:50.302765+00:00", "meta": {"OBJECT_NAME": "GSAT0203 (GALILEO 7)", "OBJECT_ID": "2015-017A", "EPOCH": "2025-12-13T06:22:25.500288", "MEAN_MOTION": 1.70476024, "ECCENTRICITY": 0.00064981, "INCLINATION": 56.8461, "RA_OF_ASC_NODE": 346.6655, "ARG_OF_PERICENTER": 272.4956, "MEAN_ANOMALY": 87.4484, "EPHEMERIS_TYPE": 0, "CLASSIFICATION_TYPE": "U", "NORAD_CAT_ID": 40544, "ELEMENT_SET_NO": 999, "REV_AT_EPOCH": 6603, "BSTAR": 0, "MEAN_MOTION_DOT": -8.7e-07, "MEAN_MOTION_DDOT": 0}, "tle": {"line1": "1 40544U 15017A   25347.26557292 -.00000087  00000+0  00000+0 0  9994", "line2": "2 40544  56.8461 346.6655 0006498 272.4956  87.4484  1.70476024 66037"}}, "geometry": {"type": "Point", "coordinates": [0.7821579603746164, 20.503992305268827]}}, {"type": "Feature", "properties": {"norad_id": 40545, "name": "GSAT0204 (GALILEO 8)", "group": "gnss", "lat": -38.38037081441703, "lon": -162.1761209554143, "alt_km": 23211.46575680787, "timestamp": "2025-12-14T11:29:50.302778+00:00", "meta": {"OBJECT_NAME": "GSAT0204 (GALILEO 8)", "OBJECT_ID": "2015-017B", "EPOCH": "2025-12-11T04:11:34.346112", "MEAN_MOTION": 1.70475574, "ECCENTRICITY": 0.0006249, "INCLINATION": 56.853, "RA_OF_ASC_NODE": 346.7403, "ARG_OF_PERICENTER": 262.765, "MEAN_ANOMALY": 97.1808, "EPHEMERIS_TYPE": 0, "CLASSIFICATION_TYPE": "U", "NORAD_CAT_ID": 40545, "ELEMENT_SET_NO": 999, "REV_AT_EPOCH": 2904, "BSTAR": 0, "MEAN_MOTION_DOT": -8.8e-07, "MEAN_MOTION_DDOT": 0}, "tle": {"line1": "1 40545U 15017B   25345.17470308 -.00000088  00000+0  00000+0 0  9996", "line2": "2 40545  56.8530 346.7403 0006249 262.7650  97.1808  1.70475574 29041"}}, "geometry": {"type": "Point", "coordinates": [-162.1761209554143, -38.38037081441703]}}, {"type": "Feature", "properties": {"norad_id": 40549, "name": "BEIDOU-3S IGSO-1S (C31)", "group": "gnss", "lat": 36.91476534596936, "lon": -22.54786959787346, "alt_km": 35900.39911421479, "timestamp": "2025-12-14T11:29:50.302789+00:00", "meta": {"OBJECT_NAME": "BEIDOU-3S IGSO-1S (C31)", "OBJECT_ID": "2015-019A", "EPOCH": "2025-12-11T20:45:03.352032", "MEAN_MOTION": 1.00292963, "ECCENTRICITY": 0.0036964, "INCLINATION": 49.5542, "RA_OF_ASC_NODE": 297.7211, "ARG_OF_PERICENTER": 195.3449, "MEAN_ANOMALY": 352.9961, "EPHEMERIS_TYPE": 0, "CLASSIFICATION_TYPE": "U", "NORAD_CAT_ID": 40549, "ELEMENT_SET_NO": 999, "REV_AT_EPOCH": 3919, "BSTAR": 0, "MEAN_MOTION_DOT": -1.91e-06, "MEAN_MOTION_DDOT": 0}, "tle": {"line1": "1 40549U 15019A   25345.86462213 -.00000191  00000+0  00000+0 0  9999", "line2": "2 40549  49.5542 297.7211 0036964 195.3449 352.9961  1.00292963 39194"}}, "geometry": {"type": "Point", "coordinates": [-22.54786959787346, 36.91476534596936]}}, {"type": "Feature", "properties": {"norad_id": 40730, "name": "GPS BIIF-10 (PRN 08)", "group": "gnss", "lat": 8.50109270802356, "lon": 88.4863657277626, "alt_km": 20414.321618032736, "timestamp": "2025-12-14T11:29:50.302801+00:00", "meta": {"OBJECT_NAME": "GPS BIIF-10 (PRN 08)", "OBJECT_ID": "2015-033A", "EPOCH": "2025-12-13T05:58:43.034880", "MEAN_MOTION": 2.00565584, "ECCENTRICITY": 0.01109992, "INCLINATION": 54.1301, "RA_OF_ASC_NODE": 274.7519, "ARG_OF_PERICENTER": 26.8185, "MEAN_ANOMALY": 333.7648, "EPHEMERIS_TYPE": 0, "CLASSIFICATION_TYPE": "U", "NORAD_CAT_ID": 40730, "ELEMENT_SET_NO": 999, "REV_AT_EPOCH": 7626, "BSTAR": 0, "MEAN_MOTION_DOT": -7.5e-07, "MEAN_MOTION_DDOT": 0}, "tle": {"line1": "1 40730U 15033A   25347.24910920 -.00000075  00000+0  00000+0 0  9995", "line2": "2 40730  54.1301 274.7519 0110999  26.8185 333.7648  2.00565584 76264"}}, "geometry": {"type": "Point", "coordinates": [88.4863657277626, 8.50109270802356]}}, {"type": "Feature", "properties": {"norad_id": 40748, "name": "BEIDOU-3S M2S (C58)", "group": "gnss", "lat": -55.03181512547716, "lon": -140.50527647094668, "alt_km": 21499.694089985947, "timestamp": "2025-12-14T11:29:50.302813+00:00", "meta": {"OBJECT_NAME": "BEIDOU-3S M2S (C58)", "OBJECT_ID": "2015-037A", "EPOCH": "2025-12-11T22:15:26.437248", "MEAN_MOTION": 1.8622897, "ECCENTRICITY": 0.00123447, "INCLINATION": 55.0397, "RA_OF_ASC_NODE": 308.4912, "ARG_OF_PERICENTER": 267.8245, "MEAN_ANOMALY": 92.025, "EPHEMERIS_TYPE": 0, "CLASSIFICATION_TYPE": "U", "NORAD_CAT_ID": 40748, "ELEMENT_SET_NO": 999, "REV_AT_EPOCH": 7063, "BSTAR": 0, "MEAN_MOTION_DOT": -8.9e-07, "MEAN_MOTION_DDOT": 0}, "tle": {"line1": "1 40748U 15037A   25345.92738932 -.00000089  00000+0  00000+0 0  9997", "line2": "2 40748  55.0397 308.4912 0012344 267.8245  92.0250  1.86228970 70636"}}, "geometry": {"type": "Point", "coordinates": [-140.50527647094668, -55.03181512547716]}}, {"type": "Feature", "properties": {"norad_id": 40749, "name": "BEIDOU-3S M1S (C57)", "group": "gnss", "lat": 47.09167357840896, "lon": 79.57877185819932, "alt_km": 21524.71510498766, "timestamp": "2025-12-14T11:29:50.302823+00:00", "meta": {"OBJECT_NAME": "BEIDOU-3S M1S (C57)", "OBJECT_ID": "2015-037B", "EPOCH": "2025-12-11T14:53:54.000096", "MEAN_MOTION": 1.86253918, "ECCENTRICITY": 0.00034406, "INCLINATION": 55.0364, "RA_OF_ASC_NODE": 308.4915, "ARG_OF_PERICENTER": 358.1692, "MEAN_ANOMALY": 1.8205, "EPHEMERIS_TYPE": 0, "CLASSIFICATION_TYPE": "U", "NORAD_CAT_ID": 40749, "ELEMENT_SET_NO": 999, "REV_AT_EPOCH": 7063, "BSTAR": 0, "MEAN_MOTION_DOT": -8.8e-07, "MEAN_MOTION_DDOT": 0}, "tle": {"line1": "1 40749U 15037B   25345.62076389 -.00000088  00000+0  00000+0 0  9995", "line2": "2 40749  55.0364 308.4915 0003440 358.1692   1.8205  1.86253918 70639"}}, "geometry": {"type": "Point", "coordinates": [79.57877185819932, 47.09167357840896]}}, {"type": "Feature", "properties": {"norad_id": 40889, "name": "GSAT0205 (GALILEO 9)", "group": "gnss", "lat": 8.200473868202916, "lon": -127.49378716554408, "alt_km": 23205.97692634212, "timestamp": "2025-12-14T11:29:50.302835+00:00", "meta": {"OBJECT_NAME": "GSAT0205 (GALILEO 9)", "OBJECT_ID": "2015-045A", "EPOCH": "2025-12-13T06:56:57.536448", "MEAN_MOTION": 1.70473165, "ECCENTRICITY": 0.00060191, "INCLINATION": 55.0031, "RA_OF_ASC_NODE": 226.743, "ARG_OF_PERICENTER": 39.8542, "MEAN_ANOMALY": 320.2702, "EPHEMERIS_TYPE": 0, "CLASSIFICATION_TYPE": "U", "NORAD_CAT_ID": 40889, "ELEMENT_SET_NO": 999, "REV_AT_EPOCH": 6384, "BSTAR": 0, "MEAN_MOTION_DOT": 2.2e-07, "MEAN_MOTION_DDOT": 0}, "tle": {"line1": "1 40889U 15045A   25347.28955482  .00000022  00000+0  00000+0 0  9990", "line2": "2 40889  55.0031 226.7430 0006019  39.8542 320.2702  1.70473165 63847"}}, "geometry": {"type": "Point", "coordinates": [-127.49378716554408, 8.200473868202916]}}, {"type": "Feature", "properties": {"norad_id": 40890, "name": "GSAT0206 (GALILEO 10)", "group": "gnss", "lat": -41.9309953854518, "lon": 85.66551022826219, "alt_km": 23238.107823471015, "timestamp": "2025-12-14T11:29:50.302846+00:00", "meta": {"OBJECT_NAME": "GSAT0206 (GALILEO 10)", "OBJECT_ID": "2015-045B", "EPOCH": "2025-12-11T03:55:56.933760", "MEAN_MOTION": 1.70473071, "ECCENTRICITY": 0.00038554, "INCLINATION": 55.0029, "RA_OF_ASC_NODE": 226.7968, "ARG_OF_PERICENTER": 36.8797, "MEAN_ANOMALY": 323.2259, "EPHEMERIS_TYPE": 0, "CLASSIFICATION_TYPE": "U", "NORAD_CAT_ID": 40890, "ELEMENT_SET_NO": 999, "REV_AT_EPOCH": 6383, "BSTAR": 0, "MEAN_MOTION_DOT": 9e-08, "MEAN_MOTION_DDOT": 0}, "tle": {"line1": "1 40890U 15045B   25345.16385340  .00000009  00000+0  00000+0 0  9992", "line2": "2 40890  55.0029 226.7968 0003855  36.8797 323.2259  1.70473071 63831"}}, "geometry": {"type": "Point", "coordinates": [85.66551022826219, -41.9309953854518]}}]}